{
  "norad_id": 57147,
  "name": "STARLINK-5765",
  "history": [
    {
      "epoch": "2026-03-28T22:00:01.999584Z",
      "apogee_km": 487.7862591869989,
      "perigee_km": 485.44222122851806,
      "latitude_deg": -42.215801531712074,
      "longitude_deg": -76.68355796722064,
      "height_km": 498.4051060953016,
      "semi_major_axis_km": 6864.751240207758,
      "eccentricity": 0.00017073,
      "inclination_deg": 43.0078,
      "raan_deg": 154.9568,
      "arg_perigee_deg": 278.3361,
      "mean_anomaly_deg": 2.5422,
      "mean_motion_rev_day": 15.26390153
    },
    {
      "epoch": "2026-03-29T04:00:01.999584Z",
      "apogee_km": 486.65831903277376,
      "perigee_km": 485.0370458507823,
      "latitude_deg": -24.02705582559389,
      "longitude_deg": 115.3456794797709,
      "height_km": 491.0895394530598,
      "semi_major_axis_km": 6863.984682441778,
      "eccentricity": 0.0001181,
      "inclination_deg": 43.0007,
      "raan_deg": 153.5449,
      "arg_perigee_deg": 262.7478,
      "mean_anomaly_deg": 313.6416,
      "mean_motion_rev_day": 15.26645857
    },
    {
      "epoch": "2026-03-30T04:00:01.999584Z",
      "apogee_km": 486.5035734866742,
      "perigee_km": 484.6448804864067,
      "latitude_deg": -26.73495461207509,
      "longitude_deg": -132.15334396789265,
      "height_km": 491.64632829155863,
      "semi_major_axis_km": 6863.71122698654,
      "eccentricity": 0.0001354,
      "inclination_deg": 43.0006,
      "raan_deg": 147.9087,
      "arg_perigee_deg": 278.8297,
      "mean_anomaly_deg": 40.1874,
      "mean_motion_rev_day": 15.26737092
    },
    {
      "epoch": "2026-03-30T06:00:02.000160Z",
      "apogee_km": 486.4014293347009,
      "perigee_km": 484.6524304920804,
      "latitude_deg": 35.28319351454304,
      "longitude_deg": -81.2221689182156,
      "height_km": 487.70721099132305,
      "semi_major_axis_km": 6863.66392991339,
      "eccentricity": 0.00012741,
      "inclination_deg": 43.0005,
      "raan_deg": 147.4399,
      "arg_perigee_deg": 277.7364,
      "mean_anomaly_deg": 139.8339,
      "mean_motion_rev_day": 15.26752873
    },
    {
      "epoch": "2026-03-30T14:00:03.000384Z",
      "apogee_km": 486.78699104916905,
      "perigee_km": 484.55721402411746,
      "latitude_deg": 43.129653468241386,
      "longitude_deg": -159.83198871858815,
      "height_km": 489.91259279752245,
      "semi_major_axis_km": 6863.809102536643,
      "eccentricity": 0.00016243,
      "inclination_deg": 43.0007,
      "raan_deg": 145.5603,
      "arg_perigee_deg": 282.9085,
      "mean_anomaly_deg": 168.9831,
      "mean_motion_rev_day": 15.26704436
    },
    {
      "epoch": "2026-03-30T22:00:00.999936Z",
      "apogee_km": 486.6321963784858,
      "perigee_km": 484.4760364511758,
      "latitude_deg": 33.62199659022283,
      "longitude_deg": 120.20907763792898,
      "height_km": 487.64791618907134,
      "semi_major_axis_km": 6863.6911164148305,
      "eccentricity": 0.00015707,
      "inclination_deg": 43.0008,
      "raan_deg": 143.6778,
      "arg_perigee_deg": 271.9751,
      "mean_anomaly_deg": 214.0212,
      "mean_motion_rev_day": 15.26743802
    },
    {
      "epoch": "2026-03-31T20:00:01.999008Z",
      "apogee_km": 486.55995687985705,
      "perigee_km": 484.50634677043035,
      "latitude_deg": 31.51221578647036,
      "longitude_deg": 148.46422282543446,
      "height_km": 487.21086992216635,
      "semi_major_axis_km": 6863.670151825143,
      "eccentricity": 0.0001496,
      "inclination_deg": 43.0006,
      "raan_deg": 138.5077,
      "arg_perigee_deg": 276.1967,
      "mean_anomaly_deg": 214.0139,
      "mean_motion_rev_day": 15.26750797
    },
    {
      "epoch": "2026-04-01T03:17:00.998304Z",
      "apogee_km": 486.430448437829,
      "perigee_km": 484.69118741076727,
      "latitude_deg": -1.2994657804013614e-05,
      "longitude_deg": -101.96193918998331,
      "height_km": 485.30883811265284,
      "semi_major_axis_km": 6863.697817924298,
      "eccentricity": 0.0001267,
      "inclination_deg": 43.0012,
      "raan_deg": 136.7964,
      "arg_perigee_deg": 271.8973,
      "mean_anomaly_deg": 88.1733,
      "mean_motion_rev_day": 15.26741566
    },
    {
      "epoch": "2026-04-02T12:15:22.758912Z",
      "apogee_km": 486.33940065392017,
      "perigee_km": 484.7419483119611,
      "latitude_deg": -3.698827228771602e-05,
      "longitude_deg": 114.34392630748302,
      "height_km": 485.2404498118535,
      "semi_major_axis_km": 6863.67767448294,
      "eccentricity": 0.00011637,
      "inclination_deg": 43.0,
      "raan_deg": 129.0471,
      "arg_perigee_deg": 275.5191,
      "mean_anomaly_deg": 84.5527,
      "mean_motion_rev_day": 15.26748287
    },
    {
      "epoch": "2026-04-03T02:23:14.983872Z",
      "apogee_km": 486.3507424849013,
      "perigee_km": 484.7206202230809,
      "latitude_deg": -8.017353426625917e-06,
      "longitude_deg": -101.52519314060203,
      "height_km": 485.2169885400049,
      "semi_major_axis_km": 6863.672681353991,
      "eccentricity": 0.00011875,
      "inclination_deg": 42.9996,
      "raan_deg": 125.7259,
      "arg_perigee_deg": 276.7118,
      "mean_anomaly_deg": 83.3598,
      "mean_motion_rev_day": 15.26749953
    },
    {
      "epoch": "2026-04-04T09:47:24.974880Z",
      "apogee_km": 486.69563618028224,
      "perigee_km": 484.41455674894314,
      "latitude_deg": 6.425146966890815e-06,
      "longitude_deg": 138.76442645127221,
      "height_km": 485.3360367008076,
      "semi_major_axis_km": 6863.692096464612,
      "eccentricity": 0.00016617,
      "inclination_deg": 43.0023,
      "raan_deg": 118.3468,
      "arg_perigee_deg": 269.8147,
      "mean_anomaly_deg": 90.2514,
      "mean_motion_rev_day": 15.26743475
    },
    {
      "epoch": "2026-04-05T09:20:32.490816Z",
      "apogee_km": 486.52466126325544,
      "perigee_km": 484.60419760330024,
      "latitude_deg": 3.1855288520546687e-05,
      "longitude_deg": 138.98108603297098,
      "height_km": 485.417016623174,
      "semi_major_axis_km": 6863.701429433278,
      "eccentricity": 0.0001399,
      "inclination_deg": 43.0035,
      "raan_deg": 112.812,
      "arg_perigee_deg": 265.4945,
      "mean_anomaly_deg": 94.5747,
      "mean_motion_rev_day": 15.26740361
    },
    {
      "epoch": "2026-04-06T07:19:27.334272Z",
      "apogee_km": 486.55426670310135,
      "perigee_km": 484.57683399834514,
      "latitude_deg": 5.753976224526879e-05,
      "longitude_deg": 163.18323257678804,
      "height_km": 485.44468902324314,
      "semi_major_axis_km": 6863.702550350723,
      "eccentricity": 0.00014405,
      "inclination_deg": 43.0029,
      "raan_deg": 107.6454,
      "arg_perigee_deg": 264.0772,
      "mean_anomaly_deg": 95.9916,
      "mean_motion_rev_day": 15.26739987
    },
    {
      "epoch": "2026-04-07T10:00:46.297728Z",
      "apogee_km": 485.37413138145985,
      "perigee_km": 484.74999205878703,
      "latitude_deg": -2.136504528285452e-05,
      "longitude_deg": 115.48366919569298,
      "height_km": 485.050879976092,
      "semi_major_axis_km": 6863.199061720123,
      "eccentricity": 4.547e-05,
      "inclination_deg": 43.0028,
      "raan_deg": 101.371,
      "arg_perigee_deg": 227.026,
      "mean_anomaly_deg": 133.0553,
      "mean_motion_rev_day": 15.26907994
    },
    {
      "epoch": "2026-04-08T11:07:21.449280Z",
      "apogee_km": 484.9619299386659,
      "perigee_km": 483.07524888091393,
      "latitude_deg": 2.5298050722415215e-08,
      "longitude_deg": 91.89820268738833,
      "height_km": 483.78535322801014,
      "semi_major_axis_km": 6862.155589409789,
      "eccentricity": 0.00013747,
      "inclination_deg": 43.0029,
      "raan_deg": 95.4632,
      "arg_perigee_deg": 270.624,
      "mean_anomaly_deg": 89.4454,
      "mean_motion_rev_day": 15.27256284
    },
    {
      "epoch": "2026-04-09T07:31:33.384576Z",
      "apogee_km": 484.9892333406169,
      "perigee_km": 482.29584763538423,
      "latitude_deg": 5.087901007638946e-05,
      "longitude_deg": 140.21048955967305,
      "height_km": 483.1198337458809,
      "semi_major_axis_km": 6861.779540488,
      "eccentricity": 0.00019626,
      "inclination_deg": 43.0022,
      "raan_deg": 90.6631,
      "arg_perigee_deg": 282.8768,
      "mean_anomaly_deg": 77.1865,
      "mean_motion_rev_day": 15.27381834
    },
    {
      "epoch": "2026-04-10T07:03:52.097472Z",
      "apogee_km": 483.94684808179045,
      "perigee_km": 482.1783052789042,
      "latitude_deg": 2.4164402503911767e-06,
      "longitude_deg": 140.62597164921658,
      "height_km": 482.84897428235803,
      "semi_major_axis_km": 6861.199576680347,
      "eccentricity": 0.00012888,
      "inclination_deg": 43.0029,
      "raan_deg": 85.1233,
      "arg_perigee_deg": 269.3866,
      "mean_anomaly_deg": 90.6838,
      "mean_motion_rev_day": 15.27575498
    },
    {
      "epoch": "2026-04-11T05:02:01.295808Z",
      "apogee_km": 484.12761769105236,
      "perigee_km": 481.7933351076317,
      "latitude_deg": 1.6128690203894545e-05,
      "longitude_deg": 165.01811398276593,
      "height_km": 482.7165948095745,
      "semi_major_axis_km": 6861.097476399342,
      "eccentricity": 0.00017011,
      "inclination_deg": 43.0039,
      "raan_deg": 79.956,
      "arg_perigee_deg": 271.0437,
      "mean_anomaly_deg": 89.022,
      "mean_motion_rev_day": 15.27609596
    },
    {
      "epoch": "2026-04-13T04:06:43.519392Z",
      "apogee_km": 483.6615603035725,
      "perigee_km": 482.39416593005717,
      "latitude_deg": 6.137455372098962e-05,
      "longitude_deg": 165.82848799258645,
      "height_km": 483.1001300301438,
      "semi_major_axis_km": 6861.164863116815,
      "eccentricity": 9.236e-05,
      "inclination_deg": 43.003,
      "raan_deg": 68.8757,
      "arg_perigee_deg": 242.1756,
      "mean_anomaly_deg": 117.9003,
      "mean_motion_rev_day": 15.27587091
    },
    {
      "epoch": "2026-04-14T20:54:47.742624Z",
      "apogee_km": 484.07463533291775,
      "perigee_km": 482.0560696008233,
      "latitude_deg": 6.254991040814201e-05,
      "longitude_deg": -97.46555039331183,
      "height_km": 482.7323557187957,
      "semi_major_axis_km": 6861.20235246687,
      "eccentricity": 0.0001471,
      "inclination_deg": 43.0045,
      "raan_deg": 59.2749,
      "arg_perigee_deg": 276.2719,
      "mean_anomaly_deg": 83.7966,
      "mean_motion_rev_day": 15.27574571
    },
    {
      "epoch": "2026-04-15T20:27:08.593056Z",
      "apogee_km": 484.1252489533881,
      "perigee_km": 481.98044100784773,
      "latitude_deg": 5.656125737912933e-05,
      "longitude_deg": -97.057749197335,
      "height_km": 482.6855701254809,
      "semi_major_axis_km": 6861.189844980618,
      "eccentricity": 0.0001563,
      "inclination_deg": 43.0049,
      "raan_deg": 53.7363,
      "arg_perigee_deg": 277.7524,
      "mean_anomaly_deg": 82.3151,
      "mean_motion_rev_day": 15.27578748
    }
  ]
}